STARLINK-30813          
1 58213U 23170H   26067.44822676 -.00027426  00000+0 -10147-2 0  9999
2 58213  43.0016 200.8924 0002190 276.2944  83.7658 15.26795732130116
AL MUNTHER              
1 63240U 25052AG  26068.64540749  .00017933  00000+0  65015-3 0  9992
2 63240  97.4001 323.9152 0008027 130.7043 229.4895 15.28381521 54798
